[{"OBJECT_NAME":"POLYITAN-1","OBJECT_ID":"2014-033AJ","EPOCH":"2026-03-09T22:27:50.258304","MEAN_MOTION":15.29568085,"ECCENTRICITY":0.00093607,"INCLINATION":98.1053,"RA_OF_ASC_NODE":86.0432,"ARG_OF_PERICENTER":127.248,"MEAN_ANOMALY":232.9614,"EPHEMERIS_TYPE":0,"CLASSIFICATION_TYPE":"U","NORAD_CAT_ID":40042,"ELEMENT_SET_NO":999,"REV_AT_EPOCH":63840,"BSTAR":0.00083772474,"MEAN_MOTION_DOT":0.00024003,"MEAN_MOTION_DDOT":0},{"OBJECT_NAME":"STARLINK-34119","OBJECT_ID":"2025-095F","EPOCH":"2026-03-09T06:56:06.153504","MEAN_MOTION":15.27561474,"ECCENTRICITY":5.112e-5,"INCLINATION":42.9992,"RA_OF_ASC_NODE":178.7369,"ARG_OF_PERICENTER":222.3081,"MEAN_ANOMALY":137.7731,"EPHEMERIS_TYPE":0,"CLASSIFICATION_TYPE":"U","NORAD_CAT_ID":63895,"ELEMENT_SET_NO":999,"REV_AT_EPOCH":4772,"BSTAR":0.0012113934,"MEAN_MOTION_DOT":0.00033204,"MEAN_MOTION_DDOT":0}]
